{
  "type": "FeatureCollection",
  "features": [
    {
      "type": "Feature",
      "properties": {
        "norad_id": 65731,
        "name": "1998-067XK",
        "group": "stations",
        "lat": -51.18581233325719,
        "lon": 49.16760624805053,
        "alt_km": 371.5136251203794,
        "timestamp": "2025-12-14T07:33:18.210604+00:00",
        "meta_object_name": "1998-067XK",
        "meta_object_id": "1998-067XK",
        "meta_epoch": "2025-12-13T16:35:48.207552",
        "meta_mean_motion": 15.65971562,
        "meta_eccentricity": 0.0005022,
        "meta_inclination": 51.6277,
        "meta_ra_of_asc_node": 132.4028,
        "meta_arg_of_pericenter": 252.6654,
        "meta_mean_anomaly": 107.3793,
        "meta_ephemeris_type": 0,
        "meta_classification_type": "U",
        "meta_norad_cat_id": 65731,
        "meta_element_set_no": 999,
        "meta_rev_at_epoch": 1329,
        "meta_bstar": 0.0009945398,
        "meta_mean_motion_dot": 0.00104411,
        "meta_mean_motion_ddot": 0,
        "tle_line1": "1 65731U 98067XK  25347.69153018  .00104411  00000+0  99454-3 0  9990",
        "tle_line2": "2 65731  51.6277 132.4028 0005022 252.6654 107.3793 15.65971562 13293"
      },
      "geometry": {
        "type": "Point",
        "coordinates": [
          49.16760624805053,
          -51.18581233325719
        ]
      }
    },
    {
      "type": "Feature",
      "properties": {
        "norad_id": 65732,
        "name": "RSP-03",
        "group": "stations",
        "lat": -51.36370532753257,
        "lon": 30.980305284926345,
        "alt_km": 362.2244038924273,
        "timestamp": "2025-12-14T07:33:18.210615+00:00",
        "meta_object_name": "RSP-03",
        "meta_object_id": "1998-067XL",
        "meta_epoch": "2025-12-13T16:40:16.814784",
        "meta_mean_motion": 15.68925685,
        "meta_eccentricity": 0.00057642,
        "meta_inclination": 51.6251,
        "meta_ra_of_asc_node": 131.6633,
        "meta_arg_of_pericenter": 257.9098,
        "meta_mean_anomaly": 102.1253,
        "meta_ephemeris_type": 0,
        "meta_classification_type": "U",
        "meta_norad_cat_id": 65732,
        "meta_element_set_no": 999,
        "meta_rev_at_epoch": 1331,
        "meta_bstar": 0.0011602018,
        "meta_mean_motion_dot": 0.00138092,
        "meta_mean_motion_ddot": 0,
        "tle_line1": "1 65732U 98067XL  25347.69463906  .00138092  00000+0  11602-2 0  9991",
        "tle_line2": "2 65732  51.6251 131.6633 0005764 257.9098 102.1253 15.68925685 13317"
      },
      "geometry": {
        "type": "Point",
        "coordinates": [
          30.980305284926345,
          -51.36370532753257
        ]
      }
    },
    {
      "type": "Feature",
      "properties": {
        "norad_id": 65733,
        "name": "GHS-01",
        "group": "stations",
        "lat": -29.57016086581357,
        "lon": -26.188122693348326,
        "alt_km": 344.76286954845637,
        "timestamp": "2025-12-14T07:33:18.210626+00:00",
        "meta_object_name": "GHS-01",
        "meta_object_id": "1998-067XM",
        "meta_epoch": "2025-12-13T15:24:20.714688",
        "meta_mean_motion": 15.75321114,
        "meta_eccentricity": 0.00073966,
        "meta_inclination": 51.6271,
        "meta_ra_of_asc_node": 130.5592,
        "meta_arg_of_pericenter": 286.1274,
        "meta_mean_anomaly": 73.8911,
        "meta_ephemeris_type": 0,
        "meta_classification_type": "U",
        "meta_norad_cat_id": 65733,
        "meta_element_set_no": 999,
        "meta_rev_at_epoch": 1332,
        "meta_bstar": 0.0014639187,
        "meta_mean_motion_dot": 0.0023151,
        "meta_mean_motion_ddot": 0,
        "tle_line1": "1 65733U 98067XM  25347.64190642  .00231510  00000+0  14639-2 0  9993",
        "tle_line2": "2 65733  51.6271 130.5592 0007396 286.1274  73.8911 15.75321114 13326"
      },
      "geometry": {
        "type": "Point",
        "coordinates": [
          -26.188122693348326,
          -29.57016086581357
        ]
      }
    },
    {
      "type": "Feature",
      "properties": {
        "norad_id": 65941,
        "name": "YOTSUBA-KULOVER",
        "group": "stations",
        "lat": 0.9106310175884219,
        "lon": 132.77801656498974,
        "alt_km": 389.33788297801857,
        "timestamp": "2025-12-14T07:33:18.210637+00:00",
        "meta_object_name": "YOTSUBA-KULOVER",
        "meta_object_id": "1998-067XN",
        "meta_epoch": "2025-12-12T17:06:14.736384",
        "meta_mean_motion": 15.59447843,
        "meta_eccentricity": 0.00014047,
        "meta_inclination": 51.6283,
        "meta_ra_of_asc_node": 140.1142,
        "meta_arg_of_pericenter": 246.8378,
        "meta_mean_anomaly": 113.2466,
        "meta_ephemeris_type": 0,
        "meta_classification_type": "U",
        "meta_norad_cat_id": 65941,
        "meta_element_set_no": 999,
        "meta_rev_at_epoch": 985,
        "meta_bstar": 0.0010939393,
        "meta_mean_motion_dot": 0.0008876,
        "meta_mean_motion_ddot": 0,
        "tle_line1": "1 65941U 98067XN  25346.71267056  .00088760  00000+0  10939-2 0  9991",
        "tle_line2": "2 65941  51.6283 140.1142 0001404 246.8378 113.2466 15.59447843  9857"
      },
      "geometry": {
        "type": "Point",
        "coordinates": [
          132.77801656498974,
          0.9106310175884219
        ]
      }
    },
    {
      "type": "Feature",
      "properties": {
        "norad_id": 65942,
        "name": "BOTAN",
        "group": "stations",
        "lat": -8.14021481582503,
        "lon": 124.82510241484877,
        "alt_km": 380.3660776449369,
        "timestamp": "2025-12-14T07:33:18.210647+00:00",
        "meta_object_name": "BOTAN",
        "meta_object_id": "1998-067XP",
        "meta_epoch": "2025-12-13T14:43:20.096256",
        "meta_mean_motion": 15.63119273,
        "meta_eccentricity": 0.00030019,
        "meta_inclination": 51.6279,
        "meta_ra_of_asc_node": 134.8795,
        "meta_arg_of_pericenter": 244.7732,
        "meta_mean_anomaly": 115.2952,
        "meta_ephemeris_type": 0,
        "meta_classification_type": "U",
        "meta_norad_cat_id": 65942,
        "meta_element_set_no": 999,
        "meta_rev_at_epoch": 1000,
        "meta_bstar": 0.0011781639,
        "meta_mean_motion_dot": 0.00110558,
        "meta_mean_motion_ddot": 0,
        "tle_line1": "1 65942U 98067XP  25347.61342704  .00110558  00000+0  11782-2 0  9994",
        "tle_line2": "2 65942  51.6279 134.8795 0003001 244.7732 115.2952 15.63119273 10002"
      },
      "geometry": {
        "type": "Point",
        "coordinates": [
          124.82510241484877,
          -8.14021481582503
        ]
      }
    },
    {
      "type": "Feature",
      "properties": {
        "norad_id": 65943,
        "name": "E-KAGAKU-1",
        "group": "stations",
        "lat": 1.4407679134087867,
        "lon": 133.18681587002123,
        "alt_km": 391.8436573947274,
        "timestamp": "2025-12-14T07:33:18.210658+00:00",
        "meta_object_name": "E-KAGAKU-1",
        "meta_object_id": "1998-067XQ",
        "meta_epoch": "2025-12-10T06:39:08.237952",
        "meta_mean_motion": 15.5900432,
        "meta_eccentricity": 0.00052507,
        "meta_inclination": 51.6298,
        "meta_ra_of_asc_node": 152.3458,
        "meta_arg_of_pericenter": 191.2269,
        "meta_mean_anomaly": 168.8608,
        "meta_ephemeris_type": 0,
        "meta_classification_type": "U",
        "meta_norad_cat_id": 65943,
        "meta_element_set_no": 999,
        "meta_rev_at_epoch": 947,
        "meta_bstar": 0.0012588803,
        "meta_mean_motion_dot": 0.00100705,
        "meta_mean_motion_ddot": 0,
        "tle_line1": "1 65943U 98067XQ  25344.27717868  .00100705  00000+0  12589-2 0  9990",
        "tle_line2": "2 65943  51.6298 152.3458 0005250 191.2269 168.8608 15.59004320  9476"
      },
      "geometry": {
        "type": "Point",
        "coordinates": [
          133.18681587002123,
          1.4407679134087867
        ]
      }
    },
    {
      "type": "Feature",
      "properties": {
        "norad_id": 66052,
        "name": "HRC MONOBLOCK CAMERA",
        "group": "stations",
        "lat": -34.04089782761575,
        "lon": 101.28988782770874,
        "alt_km": 409.34875341129737,
        "timestamp": "2025-12-14T07:33:18.210668+00:00",
        "meta_object_name": "HRC MONOBLOCK CAMERA",
        "meta_object_id": "1998-067XR",
        "meta_epoch": "2025-12-13T16:19:09.679296",
        "meta_mean_motion": 15.5422236,
        "meta_eccentricity": 0.00031862,
        "meta_inclination": 51.6291,
        "meta_ra_of_asc_node": 136.8186,
        "meta_arg_of_pericenter": 188.7362,
        "meta_mean_anomaly": 171.3574,
        "meta_ephemeris_type": 0,
        "meta_classification_type": "U",
        "meta_norad_cat_id": 66052,
        "meta_element_set_no": 999,
        "meta_rev_at_epoch": 898,
        "meta_bstar": 0.00064745279,
        "meta_mean_motion_dot": 0.00042763,
        "meta_mean_motion_ddot": 0,
        "tle_line1": "1 66052U 98067XR  25347.67997314  .00042763  00000+0  64745-3 0  9996",
        "tle_line2": "2 66052  51.6291 136.8186 0003186 188.7362 171.3574 15.54222360  8984"
      },
      "geometry": {
        "type": "Point",
        "coordinates": [
          101.28988782770874,
          -34.04089782761575
        ]
      }
    }
  ]
}